NORAD_CAT_ID,OBJECT_NAME,OBJECT_TYPE,EPOCH,MEAN_MOTION,ECCENTRICITY,INCLINATION,RA_OF_ASC_NODE,ARG_OF_PERICENTER,MEAN_ANOMALY,BSTAR,MEAN_MOTION_DOT,MEAN_MOTION_DDOT,TLE_LINE0,TLE_LINE1,TLE_LINE2,SEMIMAJOR_AXIS,PERIOD,APOGEE,PERIGEE,DECAYED
56780.0,STARLINK-5963,PAYLOAD,2023-09-18 20:00:01,15.47916167,0.0003508,69.9991,103.6299,273.4494,44.5001,-0.019107,-0.00919124,0.0,0 STARLINK-5963,1 56780U 23078P   23261.83334491 -.00919124  00000-0 -19107-1 0  9992,2 56780  69.9991 103.6299 0003508 273.4494  44.5001 15.47916167 17638,6800.96,93.028,425.211,420.439,0.0
56780.0,STARLINK-5963,PAYLOAD,2023-09-18 22:00:00,15.47744298,0.0003464,69.9992,103.4032,277.1159,145.0466,-0.018824,-0.00901538,0.0,0 STARLINK-5963,1 56780U 23078P   23261.91667824 -.00901538  00000-0 -18824-1 0  9995,2 56780  69.9992 103.4032 0003464 277.1159 145.0466 15.47744298  6029,6801.463,93.039,425.684,420.972,0.0
56780.0,STARLINK-5963,PAYLOAD,2023-09-19 20:00:01,15.45960729,0.0003415,69.9993,100.9132,275.4896,209.7677,-0.020503,-0.00921341,0.0,0 STARLINK-5963,1 56780U 23078P   23262.83334491 -.00921341  00000-0 -20503-1 0  9999,2 56780  69.9993 100.9132 0003415 275.4896 209.7677 15.45960729 17782,6806.694,93.146,430.883,426.234,0.0
56780.0,STARLINK-5963,PAYLOAD,2023-09-20 14:00:01,15.4450742,0.0003544,69.9996,98.8811,268.7811,67.3243,-0.021713,-0.00927761,0.0,0 STARLINK-5963,1 56780U 23078P   23263.58334491 -.00927761  00000-0 -21713-1 0  9998,2 56780  69.9996  98.8811 0003544 268.7811  67.3243 15.44507420  6014,6810.963,93.234,435.242,430.414,0.0
56780.0,STARLINK-5963,PAYLOAD,2023-09-20 20:00:01,15.43995968,0.0003457,69.9994,98.2048,273.3432,12.1841,-0.02156,-0.0090704,0.0,0 STARLINK-5963,1 56780U 23078P   23263.83334491 -.00907040  00000-0 -21560-1 0  9994,2 56780  69.9994  98.2048 0003457 273.3432  12.1841 15.43995968 17945,6812.467,93.264,436.687,431.977,0.0
56780.0,STARLINK-5963,PAYLOAD,2023-09-20 22:00:00,15.43829624,0.0003517,69.9995,97.9793,276.3605,112.2045,-0.021443,-0.00897821,0.0,0 STARLINK-5963,1 56780U 23078P   23263.91667824 -.00897821  00000-0 -21443-1 0  9997,2 56780  69.9995  97.9793 0003517 276.3605 112.2045 15.43829624  5806,6812.956,93.275,437.217,432.425,0.0
56780.0,STARLINK-5963,PAYLOAD,2023-09-21 12:00:00,15.42684053,0.0003476,69.9998,96.4038,270.4444,118.012,-0.021876,-0.00882402,0.0,0 STARLINK-5963,1 56780U 23078P   23264.50001157 -.00882402  00000-0 -21876-1 0  9993,2 56780  69.9998  96.4038 0003476 270.4444 118.0120 15.42684053 18047,6816.329,93.344,440.563,435.824,0.0
56780.0,STARLINK-5963,PAYLOAD,2023-09-21 14:00:01,15.42548848,0.0003335,70.0,96.1789,271.6668,219.427,-0.023148,-0.00925675,0.0,0 STARLINK-5963,1 56780U 23078P   23264.58334491 -.00925675  00000-0 -23148-1 0  9995,2 56780  70.0000  96.1789 0003335 271.6668 219.4270 15.42548848  5903,6816.727,93.352,440.865,436.318,0.0
56780.0,STARLINK-5963,PAYLOAD,2023-09-21 20:00:01,15.42043045,0.000347,69.9998,95.5047,276.5176,162.2355,-0.023221,-0.00913984,0.0,0 STARLINK-5963,1 56780U 23078P   23264.83334491 -.00913984  00000-0 -23221-1 0  9995,2 56780  69.9998  95.5047 0003470 276.5176 162.2355 15.42043045 18096,6818.217,93.383,442.448,437.716,0.0
56780.0,STARLINK-5963,PAYLOAD,2023-09-21 22:00:01,15.41868643,0.0003365,69.9998,95.2799,276.735,264.536,-0.022718,-0.00890872,0.0,0 STARLINK-5963,1 56780U 23078P   23264.91668981 -.00890872  00000-0 -22718-1 0  9998,2 56780  69.9998  95.2799 0003365 276.7350 264.5360 15.41868643  5968,6818.732,93.393,442.891,438.302,0.0
56780.0,STARLINK-5963,PAYLOAD,2023-09-22 14:00:01,15.405923,0.0003392,70.0002,93.4845,269.0874,9.9521,-0.024632,-0.00922896,0.0,0 STARLINK-5963,1 56780U 23078P   23265.58334491 -.00922896  00000-0 -24632-1 0  9997,2 56780  70.0002  93.4845 0003392 269.0874   9.9521 15.40592300  5654,6822.497,93.471,446.676,442.048,0.0
56780.0,STARLINK-5963,PAYLOAD,2023-09-22 20:00:01,15.40081031,0.0003344,70.0,92.8121,274.6573,310.2846,-0.02453,-0.00905126,0.0,0 STARLINK-5963,1 56780U 23078P   23265.83334491 -.00905126  00000-0 -24530-1 0  9999,2 56780  70.0000  92.8121 0003344 274.6573 310.2846 15.40081031 18259,6824.007,93.502,448.154,443.59,0.0
56780.0,STARLINK-5963,PAYLOAD,2023-09-22 22:00:00,15.39910653,0.0003509,70.0001,92.5881,275.7914,51.0159,-0.02416,-0.00887942,0.0,0 STARLINK-5963,1 56780U 23078P   23265.91667824 -.00887942  00000-0 -24160-1 0  9991,2 56780  70.0001  92.5881 0003509 275.7914  51.0159 15.39910653  5706,6824.51,93.512,448.77,443.981,0.0
56780.0,STARLINK-5963,PAYLOAD,2023-09-23 12:00:00,15.38776117,0.0003445,70.0,91.0215,268.8183,49.6605,-0.025032,-0.00886367,0.0,0 STARLINK-5963,1 56780U 23078P   23266.50001157 -.00886367  00000-0 -25032-1 0  9997,2 56780  70.0000  91.0215 0003445 268.8183  49.6605 15.38776117 18358,6827.864,93.581,452.082,447.377,0.0
56780.0,STARLINK-5963,PAYLOAD,2023-09-23 14:00:01,15.38640712,0.0003407,70.0001,90.7979,271.937,148.0077,-0.026593,-0.00933306,0.0,0 STARLINK-5963,1 56780U 23078P   23266.58334491 -.00933306  00000-0 -26593-1 0  9994,2 56780  70.0001  90.7979 0003407 271.9370 148.0077 15.38640712  5818,6828.265,93.589,452.456,447.804,0.0
56780.0,STARLINK-5963,PAYLOAD,2023-09-23 20:00:01,15.38124787,0.0003459,69.9999,90.1274,275.3322,88.7552,-0.026122,-0.00903949,0.0,0 STARLINK-5963,1 56780U 23078P   23266.83334491 -.00903949  00000-0 -26122-1 0  9990,2 56780  69.9999  90.1274 0003459 275.3322  88.7552 15.38124787 18401,6829.792,93.62,454.019,449.294,0.0
56780.0,STARLINK-5963,PAYLOAD,2023-09-24 12:00:00,15.36824621,0.0003315,69.9998,88.3421,271.8797,181.05,-0.026952,-0.00894787,0.0,0 STARLINK-5963,1 56780U 23078P   23267.50001157 -.00894787  00000-0 -26952-1 0  9995,2 56780  69.9998  88.3421 0003315 271.8797 181.0500 15.36824621 18504,6833.643,93.7,457.774,453.243,0.0
56780.0,STARLINK-5963,PAYLOAD,2023-09-24 14:00:01,15.3668789,0.000323,69.9999,88.1192,270.4635,283.3462,-0.028593,-0.00940912,0.0,0 STARLINK-5963,1 56780U 23078P   23267.58334491 -.00940912  00000-0 -28593-1 0  9998,2 56780  69.9999  88.1192 0003230 270.4635 283.3462 15.36687890  5964,6834.049,93.708,458.121,453.706,0.0
56780.0,STARLINK-5963,PAYLOAD,2023-09-24 22:00:00,15.35992464,0.0003254,69.9997,87.228,276.5939,320.293,-0.027137,-0.00878388,0.0,0 STARLINK-5963,1 56780U 23078P   23267.91667824 -.00878388  00000-0 -27137-1 0  9994,2 56780  69.9997  87.2280 0003254 276.5939 320.2930 15.35992464  6024,6836.111,93.75,460.201,455.752,0.0
56780.0,STARLINK-5963,PAYLOAD,2023-09-25 04:00:00,15.35539114,0.0003169,69.9994,86.5603,275.3638,263.2938,-0.030098,-0.00953268,0.0,0 STARLINK-5963,1 56780U 23078P   23268.16667824 -.00953268  00000-0 -30098-1 0  9993,2 56780  69.9994  86.5603 0003169 275.3638 263.2938 15.35539114 18600,6837.457,93.778,461.488,457.155,0.0
56780.0,STARLINK-5963,PAYLOAD,2023-09-25 12:00:00,15.34873182,0.0003255,69.9996,85.6709,270.2501,310.09,-0.029,-0.0090341,0.0,0 STARLINK-5963,1 56780U 23078P   23268.50001157 -.00903410  00000-0 -29000-1 0  9997,2 56780  69.9996  85.6709 0003255 270.2501 310.0900 15.34873182 18669,6839.434,93.819,463.525,459.073,0.0
56780.0,STARLINK-5963,PAYLOAD,2023-09-25 14:00:01,15.34734718,0.0003455,69.9996,85.4486,271.1679,49.5306,-0.030697,-0.00948046,0.0,0 STARLINK-5963,1 56780U 23078P   23268.58335648 -.00948046  00000-0 -30697-1 0  9998,2 56780  69.9996  85.4486 0003455 271.1679  49.5306 15.34734718  6018,6839.846,93.827,464.074,459.347,0.0
56780.0,STARLINK-5963,PAYLOAD,2023-09-25 22:00:00,15.34038229,0.0003477,69.9992,84.5601,278.5732,82.7903,-0.028985,-0.00881139,0.0,0 STARLINK-5963,1 56780U 23078P   23268.91667824 -.00881139  00000-0 -28985-1 0  9995,2 56780  69.9992  84.5601 0003477 278.5732  82.7903 15.34038229  5967,6841.916,93.87,466.16,461.402,0.0
56780.0,STARLINK-5963,PAYLOAD,2023-09-26 04:00:00,15.33579941,0.0003368,69.999,83.8943,274.6831,26.6939,-0.031985,-0.00951786,0.0,0 STARLINK-5963,1 56780U 23078P   23269.16667824 -.00951786  00000-0 -31985-1 0  9993,2 56780  69.9990  83.8943 0003368 274.6831  26.6939 15.33579941 18760,6843.279,93.898,467.449,462.839,0.0
56780.0,STARLINK-5963,PAYLOAD,2023-09-26 12:00:00,15.32921847,0.0003474,69.9994,83.0074,271.6579,69.0516,-0.031181,-0.00912218,0.0,0 STARLINK-5963,1 56780U 23078P   23269.50001157 -.00912218  00000-0 -31181-1 0  9997,2 56780  69.9994  83.0074 0003474 271.6579  69.0516 15.32921847 18818,6845.237,93.938,469.48,464.724,0.0
56780.0,STARLINK-5963,PAYLOAD,2023-09-26 14:00:01,15.32778393,0.0003449,69.9993,82.7858,274.601,165.8829,-0.032794,-0.00951464,0.0,0 STARLINK-5963,1 56780U 23078P   23269.58335648 -.00951464  00000-0 -32794-1 0  9997,2 56780  69.9993  82.7858 0003449 274.6010 165.8829 15.32778393  6026,6845.664,93.947,469.89,465.168,0.0
56780.0,STARLINK-5963,PAYLOAD,2023-09-26 22:00:00,15.32077174,0.0003418,69.9991,81.8997,280.7909,198.0119,-0.030614,-0.00875202,0.0,0 STARLINK-5963,1 56780U 23078P   23269.91667824 -.00875202  00000-0 -30614-1 0  9992,2 56780  69.9991  81.8997 0003418 280.7909 198.0119 15.32077174  6028,6847.753,93.99,471.958,467.277,0.0
56780.0,STARLINK-5963,PAYLOAD,2023-09-27 04:00:00,15.31617815,0.000345,69.9989,81.2358,277.2966,139.7589,-0.033643,-0.00941966,0.0,0 STARLINK-5963,1 56780U 23078P   23270.16667824 -.00941966  00000-0 -33643-1 0  9997,2 56780  69.9989  81.2358 0003450 277.2966 139.7589 15.31617815 18915,6849.122,94.018,473.35,468.624,0.0
56780.0,STARLINK-5963,PAYLOAD,2023-09-27 12:00:00,15.30967592,0.0003383,69.9993,80.3514,274.1278,179.9117,-0.033319,-0.00916362,0.0,0 STARLINK-5963,1 56780U 23078P   23270.50001157 -.00916362  00000-0 -33319-1 0  9998,2 56780  69.9993  80.3514 0003383 274.1278 179.9117 15.30967592 18968,6851.061,94.058,475.244,470.608,0.0
56780.0,STARLINK-5963,PAYLOAD,2023-09-27 14:00:01,15.30818733,0.0003347,69.9994,80.1305,273.3242,279.8411,-0.034675,-0.00946467,0.0,0 STARLINK-5963,1 56780U 23078P   23270.58334491 -.00946467  00000-0 -34675-1 0  9991,2 56780  69.9994  80.1305 0003347 273.3242 279.8411 15.30818733  6020,6851.505,94.067,475.663,471.077,0.0
